QIANFAN-60              
1 62790U 25016F   26062.13931129  .00000064  00000+0  79889-4 0  9997
2 62790  88.9673  94.7421 0017882 109.6569 250.6514 13.50992412 58086
QIANFAN-61              
1 62791U 25016G   26062.09816995  .00000051  00000+0  60446-4 0  9991
2 62791  88.9741  94.9641 0016807 109.0752 251.2221 13.50993685 58099
QIANFAN-62              
1 62792U 25016H   26062.10221969  .00000048  00000+0  55829-4 0  9990
2 62792  88.9687  94.7886 0018189 109.5200 250.7918 13.50996374 58080
QIANFAN-63              
1 62793U 25016J   26062.12693866  .00000068  00000+0  86627-4 0  9994
2 62793  88.9694  94.7430 0018209 114.2459 246.0597 13.50995022 58121
QIANFAN-64              
1 62794U 25016K   26062.09405954  .00000045  00000+0  50815-4 0  9995
2 62794  88.9680  94.7096 0016193 107.8595 252.4324 13.50992946 58114
QIANFAN-65              
1 62795U 25016L   26062.16392570  .00000065  00000+0  81772-4 0  9991
2 62795  88.9677  94.7255 0016036 109.1569 251.1320 13.51008609 58106
QIANFAN-66              
1 62796U 25016M   26062.11864754  .00000075  00000+0  97257-4 0  9991
2 62796  88.9696  94.7161 0017164 105.5836 254.7211 13.50996747 58144
QIANFAN-67              
1 62797U 25016N   26062.12270431  .00000064  00000+0  80410-4 0  9997
2 62797  88.9687  94.7334 0017090 111.6493 248.6480 13.50995077 58114
QIANFAN-68              
1 62798U 25016P   26062.11463403  .00000070  00000+0  89229-4 0  9994
2 62798  88.9690  94.7824 0017150 110.0861 250.2138 13.51005034 58094
QIANFAN-69              
1 62799U 25016Q   26062.13109705  .00000078  00000+0  10196-3 0  9993
2 62799  88.9665  94.6325 0017989 111.4040 248.9032 13.50999567 58130
QIANFAN-70              
1 62800U 25016R   26062.14750000  .00000068  00000+0  86601-4 0  9991
2 62800  88.9690  94.7866 0017549 102.4981 257.8135 13.50996951 58090
QIANFAN-71              
1 62801U 25016S   26062.14332762  .00000067  00000+0  84797-4 0  9996
2 62801  88.9684  94.7615 0017777 114.1451 246.1561 13.50996429 58095
QIANFAN-72              
1 62802U 25016T   26062.15979437  .00000064  00000+0  80149-4 0  9998
2 62802  88.9674  94.7654 0020950 120.9678 239.3535 13.50996124 58087
QIANFAN-73              
1 63159U 25046A   26062.11259054  .00000175  00000+0  25242-3 0  9994
2 63159  88.9764 311.7229 0013126 251.2817 108.6910 13.50997554 58266
QIANFAN-74              
1 63160U 25046B   26062.17025550  .00000213  00000+0  31148-3 0  9999
2 63160  88.9764 311.6057 0001885  78.0975 282.0388 13.50997345 58337
QIANFAN-75              
1 63161U 25046C   26062.15739596  .00000197  00000+0  28698-3 0  9997
2 63161  88.9766 311.8418 0014324 254.8064 105.1503 13.51001133 58200
QIANFAN-76              
1 63162U 25046D   26062.15374644  .00000204  00000+0  29675-3 0  9992
2 63162  88.9766 311.8222 0011877 255.5577 104.4257 13.51013486 58214
QIANFAN-77              
1 63163U 25046E   26062.17221743  .00000415  00000+0  29230-3 0  9997
2 63163  88.9761 309.1665 0014205 182.3593 177.7520 13.96172503 59676
QIANFAN-78              
1 63164U 25046F   26062.12082474  .00000203  00000+0  29532-3 0  9999
2 63164  88.9765 311.6889 0013205 258.3512 101.6158 13.50997564 58282
QIANFAN-79              
1 63165U 25046G   26062.14978566  .00000196  00000+0  28569-3 0  9998
2 63165  88.9768 311.7965 0013064 256.5089 103.4607 13.51007810 58235
QIANFAN-80              
1 63166U 25046H   26062.16606466  .00000194  00000+0  28265-3 0  9999
2 63166  88.9765 311.4996 0011901 261.2189  98.7614 13.50997403 58392
QIANFAN-81              
1 63167U 25046J   26062.14419134  .00000173  00000+0  24903-3 0  9994
2 63167  88.9765 311.5697 0012941 248.9279 111.0489 13.50983290 58342
QIANFAN-82              
1 63168U 25046K   26062.17845323  .00000195  00000+0  28329-3 0  9991
2 63168  88.9765 311.6101 0011022 256.8752 103.1170 13.50998809 58337
QIANFAN-83              
1 63169U 25046L   26062.14385554  .00000283  00000+0  35187-3 0  9992
2 63169  88.9766 311.2322 0012374 234.6844 125.3157 13.62019505 58541
QIANFAN-84              
1 63170U 25046M   26062.13214588 -.00000067  00000+0 -12272-3 0  9993
2 63170  88.9762 311.7470 0014077 252.9066 107.0543 13.50972337 58251
QIANFAN-85              
1 63171U 25046N   26062.12906292  .00000190  00000+0  27594-3 0  9991
2 63171  88.9765 311.6192 0011431 255.7058 104.2824 13.51001474 58323
QIANFAN-86              
1 63172U 25046P   26062.13729845  .00000186  00000+0  26951-3 0  9991
2 63172  88.9767 311.4823 0009291 260.9906  99.0193 13.51000645 58404
QIANFAN-87              
1 63173U 25046Q   26062.10859244  .00000192  00000+0  27864-3 0  9997
2 63173  88.9763 311.5937 0009956 255.1268 104.8781 13.51008952 58332
QIANFAN-88              
1 63174U 25046R   26062.12489491  .00000197  00000+0  28701-3 0  9999
2 63174  88.9766 311.5487 0010368 264.7286  95.2683 13.50997362 58369
QIANFAN-89              
1 63175U 25046S   26062.16210248  .00000194  00000+0  28177-3 0  9990
2 63175  88.9766 311.7339 0014823 253.3911 106.5613 13.51007857 58267
QIANFAN-90              
1 63176U 25046T   26062.11687484  .00000201  00000+0  29253-3 0  9991
2 63176  88.9766 311.7111 0011763 251.7237 108.2634 13.51007657 58270
QIANFAN-91              
1 66033U 25233A   26062.07534541  .00000064  00000+0  80389-4 0  9999
2 66033  88.9925  53.9200 0001909  92.7660 267.3709 13.51004410 18854
QIANFAN-92              
1 66034U 25233B   26062.15757780  .00000068  00000+0  87338-4 0  9996
2 66034  88.9907  53.9006 0001982  87.1613 272.9765 13.51005257 18861
QIANFAN-93              
1 66035U 25233C   26062.09174575  .00000046  00000+0  53052-4 0  9997
2 66035  88.9936  53.9304 0001895  90.8731 269.2638 13.51004798 18856
QIANFAN-94              
1 66036U 25233D   26062.15328287  .00000036  00000+0  36783-4 0  9997
2 66036  88.9933  53.8311 0002046  88.5561 271.5825 13.50991753 18911
QIANFAN-95              
1 66037U 25233E   26062.08751788  .00000066  00000+0  83839-4 0  9993
2 66037  88.9931  53.3837 0002064  95.6195 264.5191 13.51015627 19153
QIANFAN-96              
1 66038U 25233F   26062.18642666  .00000039  00000+0  41409-4 0  9996
2 66038  88.9928  53.9201 0001907  94.4901 265.6468 13.51004529 18863
QIANFAN-97              
1 66039U 25233G   26062.16995317  .00000039  00000+0  41440-4 0  9994
2 66039  88.9931  53.9024 0001914  91.9942 268.1428 13.51003992 18874
QIANFAN-98              
1 66040U 25233H   26062.17813085  .00000030  00000+0  27456-4 0  9990
2 66040  88.9920  53.6440 0002442  86.4915 273.6516 13.51004384 19011
QIANFAN-99              
1 66041U 25233J   26062.18229321  .00000039  00000+0  41095-4 0  9990
2 66041  88.9930  53.9044 0002311  90.4263 269.7153 13.51004687 18874
QIANFAN-100             
1 66042U 25233K   26062.09997406  .00000065  00000+0  81787-4 0  9998
2 66042  88.9941  53.8278 0001898  91.1493 268.9875 13.51005630 18913
QIANFAN-101             
1 66043U 25233L   26062.11297779  .00000588  00000+0  23682-3 0  9997
2 66043  88.9932  52.7434 0016680 126.2400 234.0338 14.26730711 19501
QIANFAN-102             
1 66044U 25233M   26062.12039262  .00000029  00000+0  25715-4 0  9990
2 66044  88.9929  53.8228 0002070  89.0333 271.1055 13.50992287 18916
QIANFAN-103             
1 66045U 25233N   26062.12472436  .00000063  00000+0  78462-4 0  9990
2 66045  88.9932  53.9147 0001882  91.3699 268.7668 13.51006076 18862
QIANFAN-104             
1 66046U 25233P   26062.12863140  .00000036  00000+0  37364-4 0  9993
2 66046  88.9936  53.8116 0002088  86.2567 273.8822 13.51010073 18915
QIANFAN-105             
1 66047U 25233Q   26062.13674637  .00000045  00000+0  51258-4 0  9994
2 66047  88.9950  53.6397 0002011  92.6132 267.5249 13.50981402 19024
QIANFAN-106             
1 66048U 25233R   26062.13290447  .00000034  00000+0  34502-4 0  9999
2 66048  88.9918  53.8863 0002383  87.2331 272.9093 13.51005060 18879
QIANFAN-107             
1 66049U 25233S   26062.14116006  .00000044  00000+0  48916-4 0  9994
2 66049  88.9934  53.9011 0001909  90.4830 269.6540 13.51003094 18872
QIANFAN-108             
1 66050U 25233T   26062.14526730  .00000033  00000+0  32332-4 0  9998
2 66050  88.9927  53.8959 0002326  86.8022 273.3395 13.51004554 18874
